CUTE-1 (CO-55)          
1 27844U 03031E   24296.95541225  .00000789  00000+0  36540-3 0  9992
2 27844  98.6793 302.2442 0010578 129.3778 230.8339 14.23563767105967
CUBESAT XI-IV (CO-57)   
1 27848U 03031J   24297.01175765  .00000678  00000+0  32029-3 0  9991
2 27848  98.6826 302.4685 0010199 144.5171 215.6688 14.22962654105767
CUBESAT XI-V            
1 28895U 05043F   24297.35881009  .00004205  00000+0  72470-3 0  9995
2 28895  98.2198  73.6074 0014478 314.6427  45.3597 14.69001898 13495
CUTE-1.7+APD II (CO-65) 
1 32785U 08021C   24296.87218741  .00011176  00000+0  91222-3 0  9991
2 32785  97.7753 261.4604 0007500 265.2874  94.7493 14.99573185894597
AAUSAT-II               
1 32788U 08021F   24296.90452799  .00056395  00000+0  19891-2 0  9994
2 32788  97.6051 278.4863 0009028  87.2352 272.9921 15.29017981897854
CANX-2                  
1 32790U 08021H   24296.81155211  .00007554  00000+0  65005-3 0  9998
2 32790  97.7848 260.0188 0009415 273.2133  86.8012 14.97629849894376
SEEDS II (CO-66)        
1 32791U 08021J   24297.37665420  .00017555  00000+0  11206-2 0  9994
2 32791  97.7064 268.3151 0002679 195.1238 164.9910 15.08733645895897
SWISSCUBE               
1 35932U 09051B   24297.23175927  .00002833  00000+0  60094-3 0  9994
2 35932  98.4503 183.0403 0005844 289.7438  70.3131 14.59959974801279
BEESAT-1                
1 35933U 09051C   24296.64744817  .00002276  00000+0  48888-3 0  9997
2 35933  98.4432 183.1784 0004490 309.3490  50.7311 14.59568851801213
ITUPSAT1                
1 35935U 09051E   24297.23585142  .00002255  00000+0  49607-3 0  9996
2 35935  98.4529 183.4884 0006849 311.8070  48.2542 14.58465315800956
TISAT 1                 
1 36799U 10035E   24297.24670350  .00018836  00000+0  12579-2 0  9995
2 36799  98.0709 192.4765 0005066 130.5196 229.6472 15.07051889776517
AEROCUBE 4.5A           
1 38767U 12048K   24297.34486168  .00039614  00000+0  17058-2 0  9995
2 38767  64.6557 260.3418 0111994 337.0774  22.5371 15.16810213279855
AEROCUBE 4.5B           
1 38768U 12048L   24296.95199087  .00090194  00000+0  18660-2 0  9993
2 38768  64.6476 174.8817 0075854 322.5021  37.0836 15.42189528280997
STRAND-1                
1 39090U 13009E   24297.25691423  .00000840  00000+0  30135-3 0  9996
2 39090  98.3800 122.0557 0007999 225.4807 134.5726 14.36376280610640
BRITE-AUSTRIA           
1 39091U 13009F   24297.39999290  .00000562  00000+0  20802-3 0  9996
2 39091  98.3848 121.4701 0009380 233.6815 126.3506 14.36012082610678
NEE-01 PEGASO           
1 39151U 13018B   24297.57043140  .00006773  00000+0  74825-3 0  9991
2 39151  98.0495  56.1892 0013919 344.2158  15.8622 14.87690382621053
ESTCUBE 1               
1 39161U 13021C   24297.45114805  .00004330  00000+0  61054-3 0  9997
2 39161  97.8140   0.0153 0009166 166.5800 193.5657 14.77713610616060
POPACS 1                
1 39268U 13055D   24297.19063873  .00058537 -22261-6  83992-3 0  9995
2 39268  80.9755   2.8046 0352760  36.9319 325.5635 15.07647110581182
POPACS 2                
1 39269U 13055E   24296.43664029  .00016194  00000+0  35977-3 0  9994
2 39269  80.9974 100.6481 0525628 293.1809  61.4852 14.62973602575382
POPACS 3                
1 39270U 13055F   24297.34959525  .00015125  00000+0  39944-3 0  9996
2 39270  81.0059 154.7676 0613325  84.4390 282.6385 14.40850736572095
ZACUBE-1 (TSHEPISOSAT)  
1 39417U 13066B   24296.81552855  .00009382  00000+0  91065-3 0  9997
2 39417  97.7499 250.2217 0050573  97.1017 263.5956 14.91880581590594
WNISAT-1                
1 39423U 13066H   24297.08691832  .00001707  00000+0  33051-3 0  9997
2 39423  97.6676 121.0991 0167662 327.9184  31.1895 14.55946240579254
TRITON-1                
1 39427U 13066M   24297.47506675  .00008605  00000+0  11577-2 0  9996
2 39427  97.8364 211.4303 0100984  29.4960 331.1895 14.75937952585314
DELFI-N3XT              
1 39428U 13066N   24297.48007329  .00017339  00000+0  20295-2 0  9991
2 39428  97.8330 212.6688 0097047  32.9142 327.8063 14.81731430585244
GOMX-1                  
1 39430U 13066Q   24297.47548354  .00004813  00000+0  78129-3 0  9994
2 39430  97.7097 164.0648 0136125 203.9920 155.4903 14.65565238581828
CUBEBUG-2 (LO-74)       
1 39440U 13066AA  24297.38923763  .00008378  00000+0  93166-3 0  9994
2 39440  97.8232 238.5357 0065363 212.9964 146.7165 14.85841106588551
NEE-02 KRYSAOR          
1 39441U 13066AB  24297.35229764  .00004974  00000+0  61005-3 0  9997
2 39441  97.8317 233.8127 0070343 238.2224 121.2124 14.81810148588060
FUNCUBE-1 (AO-73)       
1 39444U 13066AE  24297.43706966  .00014865  00000+0  13114-2 0  9990
2 39444  97.7358 254.3522 0048051  74.3624 286.2891 14.95603202589844
UWE-3                   
1 39446U 13066AG  24297.35808491  .00007844  00000+0  82134-3 0  9997
2 39446  97.7955 244.6333 0058265 155.4557 204.9453 14.88601190588346
BRITE-CA1 (TORONTO)     
1 40020U 14033L   24297.41476125  .00002329  00000+0  37390-3 0  9991
2 40020  97.8962  70.2288 0082616  43.2663 317.4993 14.70320736553814
DUCHIFAT-1              
1 40021U 14033M   24297.38794882  .00024892  00000+0  13789-2 0  9995
2 40021  98.1006 288.4225 0013627  37.9652 322.2536 15.13727980563476
NANOSATC-BR1            
1 40024U 14033Q   24297.48952830  .00020108  00000+0  12968-2 0  9992
2 40024  98.0786 275.4326 0008635  92.6496 267.5719 15.08305579563078
QB50P1                  
1 40025U 14033R   24297.45068984  .00014153  00000+0  10409-2 0  9999
2 40025  98.0600 262.8432 0014350 104.2525 256.0294 15.03435246562638
QB50P2                  
1 40032U 14033Y   24296.87258425  .00014231  00000+0  10903-2 0  9999
2 40032  98.0184 253.0330 0012815  64.7974 295.4577 15.01901717561813
PERSEUS-M2              
1 40037U 14033AD  24297.54169118  .00004321  00000+0  43419-3 0  9997
2 40037  97.9324 228.9054 0014072 126.7023 233.5490 14.91719842561458
PERSEUS-M1              
1 40039U 14033AF  24297.38226159  .00004004  00000+0  40432-3 0  9990
2 40039  97.9102 224.4240 0013847 126.1851 234.0650 14.91570614561292
POLYITAN-1              
1 40042U 14033AJ  24296.96445474  .00022064  00000+0  14420-2 0  9993
2 40042  98.0846 267.0194 0015048  67.3571 292.9245 15.07732278562562
TIGRISAT                
1 40043U 14033AK  24297.42920839  .00005385  00000+0  69458-3 0  9998
2 40043  97.7096  94.8525 0052971 244.9443 114.6266 14.80427432556724
AEROCUBE 6A             
1 40045U 14033AM  24297.43585951  .00012905  00000+0  14294-2 0  9996
2 40045  97.6779 106.1733 0047214 219.1273 140.6526 14.86622225557069
AEROCUBE 6B             
1 40046U 14033AN  24297.46087509  .00013156  00000+0  14243-2 0  9999
2 40046  97.6749 105.0248 0046025 213.8571 145.9706 14.87583324557275
CANX-4                  
1 40055U 14034C   24297.51151981  .00002846  00000+0  39301-3 0  9999
2 40055  98.3835 137.6298 0013973 137.1018 223.1285 14.78926473555540
CANX-5                  
1 40056U 14034D   24297.31286027  .00002689  00000+0  37172-3 0  9997
2 40056  98.3838 137.4328 0013948 137.8592 222.3693 14.78935442555519
UKUBE-1                 
1 40074U 14037F   24297.53309883  .00016414  00000+0  14003-2 0  9998
2 40074  98.3506 235.7043 0005987  37.2462 322.9172 14.97787136557966
BRITE-PL2 (HEWELIUSZ)   
1 40119U 14049B   24296.85677513  .00004268  00000+0  44448-3 0  9994
2 40119  97.8863  36.0798 0014327 306.2385  53.7508 14.90281376551588
AEROCUBE 5C             
1 40965U 15058B   24297.33630809  .00008996  00000+0  77529-3 0  9993
2 40965  64.7702 327.6872 0190680 269.8946  88.0314 14.84821437276040
AEROCUBE 7              
1 40966U 15058C   24297.44004018  .00010799  00000+0  88693-3 0  9991
2 40966  64.7671 319.8178 0184589 269.5217  88.4741 14.87182692276186
FOX-1A (AO-85)          
1 40967U 15058D   24297.51549489  .00010012  00000+0  87960-3 0  9990
2 40967  64.7783 341.4790 0188889 265.5738  92.3770 14.84261926 24028
SINOD-D 1               
1 40968U 15058E   24297.49656207  .00013069  00000+0  10885-2 0  9991
2 40968  64.7783 332.9388 0182147 264.6371  93.3936 14.86852617 26876
SNAP-3 ALICE            
1 40970U 15058G   24297.38079693  .00033881  00000+0  19753-2 0  9997
2 40970  64.7685 281.8923 0144137 263.1201  95.3502 15.03404592 25000
LMRST-SAT               
1 40971U 15058H   24297.36133874  .00009119  00000+0  80073-3 0  9999
2 40971  64.7781 337.5110 0190354 267.0292  90.9020 14.84171083 24009
SNAP-3 EDDIE            
1 40972U 15058J   24297.35794493  .00036735  00000+0  21116-2 0  9995
2 40972  64.7659 275.0977 0144187 263.9680  94.4992 15.03855499 27103
PROPCUBE 3              
1 40973U 15058K   24297.35349712  .00011342  00000+0  94731-3 0  9997
2 40973  64.7713 324.0758 0186369 268.4324  89.5432 14.86324187 25062
BISONSAT                
1 40974U 15058L   24297.36148598  .00022107  00000+0  15080-2 0  9998
2 40974  64.7661 293.2577 0162291 266.3866  91.8676 14.96070492 24903
SNAP-3 JIMI             
1 40975U 15058M   24296.46721734  .00014765  00000+0  11348-2 0  9992
2 40975  64.7687 312.7090 0176365 267.7909  90.3000 14.90373076 23978
PROPCUBE 1 (FLORA)      
1 40976U 15058N   24297.52516560  .00009421  00000+0  85922-3 0  9993
2 40976  64.7773 353.1543 0189029 268.2505  89.6945 14.82919181 26815
SINOD-D 3               
1 40977U 15058P   24297.52494768  .00012067  00000+0  10442-2 0  9993
2 40977  64.7759 345.0921 0182217 267.5027  90.5212 14.85502932 25073
HORYU-4                 
1 41340U 16012D   24296.94896446  .00025333  00000+0  10581-2 0  9997
2 41340  30.9999 219.6878 0008464 210.0782 149.9374 15.22430458477599
RAVAN                   
1 41849U 16067B   24296.48877965  .00018531  00000+0  89008-3 0  9998
2 41849  98.0639 122.1044 0011357 317.7429  42.2927 15.18847842435272
CELTEE 1                
1 41850U 16067C   24297.24386293  .00012130  00000+0  76037-3 0  9991
2 41850  98.1089 113.6619 0001687 109.0335 251.1075 15.09503548434726
